start=new Date('2022-05-23T00:00:00.000Z').valueOf();
sats=[{"OBJECT_NAME":"STARLINK-3897","MEAN_ANOMALY":"217.3319","APOAPSIS":"347.967","DECAY_DATE":null,"BSTAR":"-0.00666770000000","ELEMENT_SET_NO":"999","SEMIMAJOR_AXIS":"6725.138","TIME_SYSTEM":"UTC","NORAD_CAT_ID":"52537","MEAN_MOTION":"15.74167460","TLE_LINE1":"1 52537U 22051E   22142.91668981 -.00880040  00000-0 -66677-2 0  9997","SITE":"AFWTR","CENTER_NAME":"EARTH","GP_ID":"204284651","OBJECT_ID":"2022-051E","INCLINATION":"53.2172","EPOCH":"2022-05-22T22:00:01.999584","ARG_OF_PERICENTER":"44.7509","MEAN_ELEMENT_THEORY":"SGP4","PERIOD":"91.477","MEAN_MOTION_DDOT":"0.0000000000000","ECCENTRICITY":"0.00014330","OBJECT_TYPE":"PAYLOAD","LAUNCH_DATE":"2022-05-13","EPHEMERIS_TYPE":"0","RA_OF_ASC_NODE":"248.6010","COUNTRY_CODE":"US","TLE_LINE2":"2 52537  53.2172 248.6010 0001433  44.7509 217.3319 15.74167460  1306","FILE":"3459268","REV_AT_EPOCH":"130","MEAN_MOTION_DOT":"-0.00880040","RCS_SIZE":"MEDIUM","REF_FRAME":"TEME","PERIAPSIS":"346.040","CLASSIFICATION_TYPE":"U"},{"LAUNCH_DATE":"2022-05-13","OBJECT_TYPE":"PAYLOAD","PERIOD":"91.475","ECCENTRICITY":"0.00014670","MEAN_MOTION_DDOT":"0.0000000000000","MEAN_ELEMENT_THEORY":"SGP4","ARG_OF_PERICENTER":"43.8222","INCLINATION":"53.2172","EPOCH":"2022-05-22T22:00:01.999584","CLASSIFICATION_TYPE":"U","PERIAPSIS":"345.901","REF_FRAME":"TEME","RCS_SIZE":"LARGE","MEAN_MOTION_DOT":"-0.00880366","FILE":"3459268","REV_AT_EPOCH":"130","TLE_LINE2":"2 52538  53.2172 248.5988 0001467  43.8222 219.3776 15.74208196  1300","COUNTRY_CODE":"US","RA_OF_ASC_NODE":"248.5988","EPHEMERIS_TYPE":"0","MEAN_MOTION":"15.74208196","NORAD_CAT_ID":"52538","TIME_SYSTEM":"UTC","SEMIMAJOR_AXIS":"6725.022","ELEMENT_SET_NO":"999","BSTAR":"-0.00665850000000","DECAY_DATE":null,"APOAPSIS":"347.874","MEAN_ANOMALY":"219.3776","OBJECT_NAME":"STARLINK-3933","OBJECT_ID":"2022-051F","GP_ID":"204284379","CENTER_NAME":"EARTH","SITE":"AFWTR","TLE_LINE1":"1 52538U 22051F   22142.91668981 -.00880366  00000-0 -66585-2 0  9997"},{"OBJECT_TYPE":"PAYLOAD","PERIOD":"91.476","MEAN_MOTION_DDOT":"0.0000000000000","ECCENTRICITY":"0.00015580","LAUNCH_DATE":"2022-05-13","MEAN_ELEMENT_THEORY":"SGP4","ARG_OF_PERICENTER":"39.6233","INCLINATION":"53.2172","EPOCH":"2022-05-22T22:00:01.999584","CLASSIFICATION_TYPE":"U","REF_FRAME":"TEME","PERIAPSIS":"345.900","TLE_LINE2":"2 52539  53.2172 248.5998 0001558  39.6233 223.0200 15.74186969  1305","COUNTRY_CODE":"US","RCS_SIZE":"LARGE","MEAN_MOTION_DOT":"-0.00880424","FILE":"3459268","REV_AT_EPOCH":"130","EPHEMERIS_TYPE":"0","RA_OF_ASC_NODE":"248.5998","MEAN_MOTION":"15.74186969","TIME_SYSTEM":"UTC","NORAD_CAT_ID":"52539","SEMIMAJOR_AXIS":"6725.083","ELEMENT_SET_NO":"999","APOAPSIS":"347.996","DECAY_DATE":null,"BSTAR":"-0.00666490000000","MEAN_ANOMALY":"223.0200","OBJECT_NAME":"STARLINK-3757","OBJECT_ID":"2022-051G","CENTER_NAME":"EARTH","GP_ID":"204284474","TLE_LINE1":"1 52539U 22051G   22142.91668981 -.00880424  00000-0 -66649-2 0  9994","SITE":"AFWTR"},{"OBJECT_ID":"2022-051H","CENTER_NAME":"EARTH","GP_ID":"204283945","TLE_LINE1":"1 52540U 22051H   22142.91668981 -.00879142  00000-0 -66252-2 0  9991","SITE":"AFWTR","MEAN_MOTION":"15.74287413","TIME_SYSTEM":"UTC","NORAD_CAT_ID":"52540","ELEMENT_SET_NO":"999","SEMIMAJOR_AXIS":"6724.797","MEAN_ANOMALY":"223.8549","OBJECT_NAME":"STARLINK-3940","BSTAR":"-0.00662520000000","DECAY_DATE":null,"APOAPSIS":"347.672","CLASSIFICATION_TYPE":"U","REF_FRAME":"TEME","PERIAPSIS":"345.651","TLE_LINE2":"2 52540  53.2172 248.5943 0001503  41.5721 223.8549 15.74287413  1301","COUNTRY_CODE":"US","REV_AT_EPOCH":"130","FILE":"3459268","MEAN_MOTION_DOT":"-0.00879142","RCS_SIZE":"MEDIUM","EPHEMERIS_TYPE":"0","RA_OF_ASC_NODE":"248.5943","PERIOD":"91.470","ECCENTRICITY":"0.00015030","MEAN_MOTION_DDOT":"0.0000000000000","OBJECT_TYPE":"PAYLOAD","LAUNCH_DATE":"2022-05-13","MEAN_ELEMENT_THEORY":"SGP4","ARG_OF_PERICENTER":"41.5721","EPOCH":"2022-05-22T22:00:01.999584","INCLINATION":"53.2172"},{"SITE":"AFWTR","TLE_LINE1":"1 52541U 22051J   22142.91668981 -.00880197  00000-0 -66510-2 0  9991","GP_ID":"204284578","CENTER_NAME":"EARTH","OBJECT_ID":"2022-051J","DECAY_DATE":null,"APOAPSIS":"347.839","BSTAR":"-0.00665100000000","OBJECT_NAME":"STARLINK-3845","MEAN_ANOMALY":"222.6882","SEMIMAJOR_AXIS":"6724.964","ELEMENT_SET_NO":"999","NORAD_CAT_ID":"52541","TIME_SYSTEM":"UTC","MEAN_MOTION":"15.74228800","RA_OF_ASC_NODE":"248.5976","EPHEMERIS_TYPE":"0","RCS_SIZE":"MEDIUM","MEAN_MOTION_DOT":"-0.00880197","FILE":"3459268","REV_AT_EPOCH":"130","COUNTRY_CODE":"US","TLE_LINE2":"2 52541  53.2172 248.5976 0001503  41.0680 222.6882 15.74228800  1309","PERIAPSIS":"345.818","REF_FRAME":"TEME","CLASSIFICATION_TYPE":"U","INCLINATION":"53.2172","EPOCH":"2022-05-22T22:00:01.999584","ARG_OF_PERICENTER":"41.0680","MEAN_ELEMENT_THEORY":"SGP4","LAUNCH_DATE":"2022-05-13","OBJECT_TYPE":"PAYLOAD","PERIOD":"91.473","ECCENTRICITY":"0.00015030","MEAN_MOTION_DDOT":"0.0000000000000"},{"GP_ID":"204284045","CENTER_NAME":"EARTH","OBJECT_ID":"2022-051K","SITE":"AFWTR","TLE_LINE1":"1 52542U 22051K   22142.91668981 -.00878888  00000-0 -66166-2 0  9993","NORAD_CAT_ID":"52542","TIME_SYSTEM":"UTC","MEAN_MOTION":"15.74309680","APOAPSIS":"347.620","DECAY_DATE":null,"BSTAR":"-0.00661660000000","MEAN_ANOMALY":"225.5668","OBJECT_NAME":"STARLINK-3937","SEMIMAJOR_AXIS":"6724.733","ELEMENT_SET_NO":"999","PERIAPSIS":"345.577","REF_FRAME":"TEME","CLASSIFICATION_TYPE":"U","RA_OF_ASC_NODE":"248.5931","EPHEMERIS_TYPE":"0","RCS_SIZE":"MEDIUM","REV_AT_EPOCH":"130","FILE":"3459268","MEAN_MOTION_DOT":"-0.00878888","COUNTRY_CODE":"US","TLE_LINE2":"2 52542  53.2172 248.5931 0001519  40.4100 225.5668 15.74309680  1308","MEAN_ELEMENT_THEORY":"SGP4","LAUNCH_DATE":"2022-05-13","OBJECT_TYPE":"PAYLOAD","PERIOD":"91.469","ECCENTRICITY":"0.00015190","MEAN_MOTION_DDOT":"0.0000000000000","EPOCH":"2022-05-22T22:00:01.999584","INCLINATION":"53.2172","ARG_OF_PERICENTER":"40.4100"},{"SITE":"AFWTR","TLE_LINE1":"1 52543U 22051L   22142.91668981 -.00880650  00000-0 -66493-2 0  9997","GP_ID":"204284140","CENTER_NAME":"EARTH","OBJECT_ID":"2022-051L","BSTAR":"-0.00664930000000","DECAY_DATE":null,"APOAPSIS":"347.797","MEAN_ANOMALY":"230.4601","OBJECT_NAME":"STARLINK-3926","SEMIMAJOR_AXIS":"6724.910","ELEMENT_SET_NO":"999","NORAD_CAT_ID":"52543","TIME_SYSTEM":"UTC","MEAN_MOTION":"15.74247550","RA_OF_ASC_NODE":"248.5965","EPHEMERIS_TYPE":"0","RCS_SIZE":"LARGE","MEAN_MOTION_DOT":"-0.00880650","FILE":"3459268","REV_AT_EPOCH":"130","TLE_LINE2":"2 52543  53.2172 248.5965 0001520  33.8561 230.4601 15.74247550  1304","COUNTRY_CODE":"US","PERIAPSIS":"345.753","REF_FRAME":"TEME","CLASSIFICATION_TYPE":"U","EPOCH":"2022-05-22T22:00:01.999584","INCLINATION":"53.2172","ARG_OF_PERICENTER":"33.8561","MEAN_ELEMENT_THEORY":"SGP4","LAUNCH_DATE":"2022-05-13","OBJECT_TYPE":"PAYLOAD","PERIOD":"91.472","ECCENTRICITY":"0.00015200","MEAN_MOTION_DDOT":"0.0000000000000"},{"EPHEMERIS_TYPE":"0","RA_OF_ASC_NODE":"248.5909","COUNTRY_CODE":"US","TLE_LINE2":"2 52544  53.2172 248.5909 0001531  39.7287 227.3523 15.74350667  1307","REV_AT_EPOCH":"130","FILE":"3459268","MEAN_MOTION_DOT":"-0.00878211","RCS_SIZE":"LARGE","REF_FRAME":"TEME","PERIAPSIS":"345.452","CLASSIFICATION_TYPE":"U","INCLINATION":"53.2172","EPOCH":"2022-05-22T22:00:01.999584","ARG_OF_PERICENTER":"39.7287","MEAN_ELEMENT_THEORY":"SGP4","PERIOD":"91.466","ECCENTRICITY":"0.00015310","MEAN_MOTION_DDOT":"0.0000000000000","OBJECT_TYPE":"PAYLOAD","LAUNCH_DATE":"2022-05-13","TLE_LINE1":"1 52544U 22051M   22142.91668981 -.00878211  00000-0 -65991-2 0  9990","SITE":"AFWTR","CENTER_NAME":"EARTH","GP_ID":"204284280","OBJECT_ID":"2022-051M","MEAN_ANOMALY":"227.3523","OBJECT_NAME":"STARLINK-3944","APOAPSIS":"347.511","DECAY_DATE":null,"BSTAR":"-0.00659910000000","ELEMENT_SET_NO":"999","SEMIMAJOR_AXIS":"6724.617","TIME_SYSTEM":"UTC","NORAD_CAT_ID":"52544","MEAN_MOTION":"15.74350667"},{"EPOCH":"2022-05-22T22:00:01.999584","INCLINATION":"53.2172","ARG_OF_PERICENTER":"37.8966","MEAN_ELEMENT_THEORY":"SGP4","LAUNCH_DATE":"2022-05-13","MEAN_MOTION_DDOT":"0.0000000000000","PERIOD":"91.471","ECCENTRICITY":"0.00015660","OBJECT_TYPE":"PAYLOAD","RA_OF_ASC_NODE":"248.5953","EPHEMERIS_TYPE":"0","FILE":"3459268","MEAN_MOTION_DOT":"-0.00879695","REV_AT_EPOCH":"130","RCS_SIZE":"MEDIUM","TLE_LINE2":"2 52545  53.2172 248.5953 0001566  37.8966 226.9737 15.74268210  1302","COUNTRY_CODE":"US","REF_FRAME":"TEME","PERIAPSIS":"345.663","CLASSIFICATION_TYPE":"U","MEAN_ANOMALY":"226.9737","OBJECT_NAME":"STARLINK-3939","BSTAR":"-0.00663520000000","DECAY_DATE":null,"APOAPSIS":"347.769","ELEMENT_SET_NO":"999","SEMIMAJOR_AXIS":"6724.851","NORAD_CAT_ID":"52545","TIME_SYSTEM":"UTC","MEAN_MOTION":"15.74268210","SITE":"AFWTR","TLE_LINE1":"1 52545U 22051N   22142.91668981 -.00879695  00000-0 -66352-2 0  9990","GP_ID":"204284652","CENTER_NAME":"EARTH","OBJECT_ID":"2022-051N"},{"PERIAPSIS":"345.357","REF_FRAME":"TEME","CLASSIFICATION_TYPE":"U","RA_OF_ASC_NODE":"248.5886","EPHEMERIS_TYPE":"0","REV_AT_EPOCH":"130","FILE":"3459268","MEAN_MOTION_DOT":"-0.00877670","RCS_SIZE":"LARGE","TLE_LINE2":"2 52546  53.2172 248.5886 0001505  41.2820 226.9035 15.74390158  1307","COUNTRY_CODE":"US","MEAN_ELEMENT_THEORY":"SGP4","LAUNCH_DATE":"2022-05-13","PERIOD":"91.464","MEAN_MOTION_DDOT":"0.0000000000000","ECCENTRICITY":"0.00015050","OBJECT_TYPE":"PAYLOAD","INCLINATION":"53.2172","EPOCH":"2022-05-22T22:00:01.999584","ARG_OF_PERICENTER":"41.2820","GP_ID":"204284380","CENTER_NAME":"EARTH","OBJECT_ID":"2022-051P","SITE":"AFWTR","TLE_LINE1":"1 52546U 22051P   22142.91668981 -.00877670  00000-0 -65833-2 0  9995","NORAD_CAT_ID":"52546","TIME_SYSTEM":"UTC","MEAN_MOTION":"15.74390158","MEAN_ANOMALY":"226.9035","OBJECT_NAME":"STARLINK-3948","DECAY_DATE":null,"APOAPSIS":"347.381","BSTAR":"-0.00658330000000","ELEMENT_SET_NO":"999","SEMIMAJOR_AXIS":"6724.504"}];
